#aV2010  9  4  0  0   .00000000      96 DD+AD WGS84 FIT  NGA
## 1599 518400.00000000   900.00000000 55443  .0000000000000
+   32     1  2  3  4  5  6  7  8  9 10 11 12 13 14 15 16 17
+         18 19 20 21 22 23 24 25 26 27 28 29 30 31 32  0  0
+          0  0  0  0  0  0  0  0  0  0  0  0  0  0  0  0  0
+          0  0  0  0  0  0  0  0  0  0  0  0  0  0  0  0  0
+          0  0  0  0  0  0  0  0  0  0  0  0  0  0  0  0  0
++         0  0  0  0  0  0  0  0  0  0  0  0  0  0  0  0  0
++         0  0  0  0  0  0  0  0  0  0  0  0  0  0  0  0  0
++         0  0  0  0  0  0  0  0  0  0  0  0  0  0  0  0  0
++         0  0  0  0  0  0  0  0  0  0  0  0  0  0  0  0  0
++         0  0  0  0  0  0  0  0  0  0  0  0  0  0  0  0  0
%c cc cc ccc ccc cccc cccc cccc cccc ccccc ccccc ccccc ccccc
%c cc cc ccc ccc cccc cccc cccc cccc ccccc ccccc ccccc ccccc
%f  0.0000000  0.000000000  0.00000000000  0.000000000000000
%f  0.0000000  0.000000000  0.00000000000  0.000000000000000
%i    0    0    0    0      0      0      0      0         0
%i    0    0    0    0      0      0      0      0         0
/*      NGA, ST. LOUIS,MO.                                  
/*   EPHEMERIS COMPUTED FROM  3 DAYS OF DATA                
/* CCCCCCCCCCCCCCCCCCCCCCCCCCCCCCCCCCCCCCCCCCCCCCCCCCCCCCCCC
/* CCCCCCCCCCCCCCCCCCCCCCCCCCCCCCCCCCCCCCCCCCCCCCCCCCCCCCCCC
*  2010  9  4 11 45   .00000000                                                 
P  1   4389.891576 -26121.547627   -495.917028   -158.998871                    
V  1   2819.888551     14.550036  31936.450132      -.038968                    
P  2   9188.055019  20859.301562  14005.093994    285.964222                    
V  2 -15102.628396  -9450.008660  23510.503511       .028664                    
P  3  -5967.347060 -14993.739344 -21468.586663    603.973367                    
V  3  23876.357248 -11537.682146   1789.348720       .050951                    
P  4  -3905.854110  16282.265319  20363.676449    161.889854                    
V  4 -20874.300327 -16251.412543   9267.415607       .088109                    
P  5   4219.575642  23363.116377 -11828.280001    -32.211339                    
V  5  -5190.647328  14345.556907  26595.053938      -.048842                    
P  6    538.785747 -16603.707391 -20524.098988    507.202950                    
V  6  24961.991307  -9178.372077   8184.201414      -.149980                    
P  7 -19431.005217   -360.351447 -18199.810201     -1.913356                    
V  7 -16600.270548 -15955.593645  17858.562165       .000437                    
P  8 -11241.013293   9235.420188 -22242.516598      6.585170                    
V  8 -20077.365251 -19690.034469   1443.609957       .000383                    
P  9  21256.008367  15789.611833   1641.839133     28.384307                    
V  9    770.814740   3413.097430 -32112.015488       .022946                    
P 10  -5686.755511  25736.030042    447.258214    -51.407101                    
V 10  -3185.361209  -1477.351728  31779.648106      -.010593                    
P 11 -24869.233532  -8887.976665   3997.852061    -87.182639                    
V 11  -2738.183343  -6615.081536 -29281.761151      -.025739                    
P 12  12841.949074   9689.978750  21195.710524    -76.335439                    
V 12  -5735.848865  26153.381281  -8345.700466       .037796                    
P 13 -25908.187786   5020.415935   3098.953042    298.233104                    
V 13   3472.081164  -2782.151005  32089.985455      -.008704                    
P 14  16258.223825 -15034.232778  14706.730517     85.297465                    
V 14  18100.292822  -3774.057115 -24251.972667       .037746                    
P 15  16170.150662   8576.214213 -19274.047205   -213.972568                    
V 15 -22474.235584   9829.601931 -14342.883872       .054332                    
P 16    676.426411 -25480.618686  -6901.219886   -105.436250                    
V 16   4351.673979  -8125.094600  30562.110350      -.034466                    
P 17 -18660.389108  14721.372211  11733.629187    169.421900                    
V 17 -14861.183099   2217.070681 -26868.784721       .015320                    
P 18  15803.861122 -10576.314537 -18097.819974     91.055590                    
V 18  -2697.499821  23738.498009 -16352.136351       .022600                    
P 19 -16365.885302  -9324.352613 -18837.700422    -63.117761                    
V 19  22709.456025  -7388.087756 -15739.876656      -.030965                    
P 20 -14136.082590  -8507.969191  20689.710873     51.476555                    
V 20   4822.723797 -26234.714688  -7393.791589      -.003497                    
P 21  18512.198821  -2318.420090 -18764.730849    -85.787780                    
V 21  17460.289099  17218.919579  14196.980847      -.026571                    
P 22  11912.549665 -21520.603331  -9723.054045    163.809801                    
V 22    697.255768  13100.746632 -27749.736149      -.007366                    
P 23 -23478.384160  -1162.257302  12673.774793    355.414913                    
V 23  14488.066136  -6989.542763  25843.615732      -.017703                    
P 24  -9330.131207 -21446.213753 -12772.072236    318.727442                    
V 24  13456.025842   9428.308284 -25261.333976       .033395                    
P 25  15587.169827  -2795.800051  21303.785178    -40.708279                    
V 25  -3963.229962  26814.984495   6399.387707      -.006139                    
P 26   6460.177445  13534.016270 -22511.298937     -4.712630                    
V 26 -26124.396850   7243.698550  -2813.218611      -.068388                    
P 27  20210.935246  17193.312636  -1965.624426    185.869480                    
V 27  -3904.339461   -344.771547 -31905.430884       .035057                    
P 28 -12788.252275  19432.111720 -12065.263849     -4.837402                    
V 28   1165.212257 -16313.976838 -26738.544411       .014801                    
P 29  25707.351455  -4776.739927   4620.438782    146.918275                    
V 29  -4660.851956   4386.758114  31067.770071       .028680                    
P 30  15396.778006  -4451.952902  20765.364599    275.389207                    
V 30  -2991.237668  27183.335040   7928.542266       .033711                    
P 31    694.716657 -17385.112619  20221.111415    -11.971231                    
V 31  19748.988949  15724.819363  13143.619329       .030323                    
P 32  -9956.991810 -15577.536249  19528.638454    -77.314033                    
V 32   7409.239604 -22836.945904 -14336.467427      -.089586                    
EOF
